C/2010 R1 (LINEAR),e,156.9329,343.5916,114.2775,16104,0.0000005,0.99965259,0.0000,05/18.6232/2012,2000,g  6.0,4.0
# From MPC194123
C/2010 S1 (LINEAR),h,05/21.8899/2013,125.4267,93.6480,118.7024,1.000818,5.898096,2000,3.5,4.0
# From MPC194123
P/2010 T2 (PANSTARRS),e,7.8704,57.9957,349.2306,5.556076,0.0752579,0.32359865,62.4940,05/27.0/2026,2000,g 11.5,4.0
# From MPC194123
C/2010 U3 (Boattini),h,03/01.2720/2019,55.5147,42.9957,88.1301,1.000487,8.442723,2000,1.0,4.0
# From MPC194123
P/2010 UH55 (Spacewatch),e,8.0388,232.7593,225.4320,6.643119,0.0575633,0.56458726,317.5475,05/27.0/2026,2000,g 11.0,4.0
# From MPC194123
C/2010 X1 (Elenin),e,1.8336,322.7962,344.0776,560.2781,0.0000743,0.99912714,0.0000,09/06.7152/2011,2000,g 10.0,4.0
# From MPC194123
C/2011 A3 (Gibbs),e,26.0246,125.0957,141.0401,771.0505,0.0000460,0.99693505,0.0000,12/07.6093/2011,2000,g 10.0,4.0
# From MPC194123
C/2011 C1 (McNaught),e,16.2692,191.0414,86.1637,534.1668,0.0000798,0.99830497,0.0000,04/10.0476/2011,2000,g 15.5,4.0
# From MPC194123
P/2011 C2 (Gibbs),e,10.9009,12.1386,160.1985,7.403795,0.0489241,0.27203927,258.3656,05/27.0/2026,2000,g  9.0,4.0
# From MPC194123
C/2011 C3 (Gibbs),e,49.3632,20.8741,206.8208,280.0989,0.0002103,0.99456507,0.0000,03/30.5651/2011,2000,g 17.0,4.0
# From MPC194123
C/2011 F1 (LINEAR),e,56.3371,85.1717,192.6044,5387,0.0000025,0.99965969,0.0000,01/01.7934/2013,2000,g  5.0,4.0
# From MPC194123
P/2011 FR143 (Lemmon),e,15.9610,190.9121,349.5166,6.888803,0.0545115,0.45324155,306.5876,05/27.0/2026,2000,g 14.0,2.0
# From MPC194124
C/2011 G1 (McNaught),h,09/08.7330/2011,162.2809,152.9649,354.8850,1.000272,2.159700,2000,12.0,4.0
# From MPC194124
C/2011 J2 (LINEAR),h,12/19.2873/2013,122.8585,164.0845,85.4799,1.000244,3.468283,2000,5.5,3.6
# From MPC194124
C/2011 J2-B,h,12/19.1414/2013,122.8603,164.0823,85.4339,1.000826,3.467353,2000,9.0,3.6
# From MPC194124
C/2011 J2-C,h,12/19.2573/2013,122.8561,164.0868,85.4574,1.000925,3.467438,2000,11.0,3.6
# From MPC194124
C/2011 J3 (LINEAR),e,114.6389,21.5668,27.8583,19.57272,0.0113822,0.92608437,63.6915,05/27.0/2026,2000,g 15.0,4.0
# From MPC194124
P/2011 JB15 (Spacewatch-Boattini),e,19.1370,153.6333,110.5044,7.383879,0.0491221,0.31562739,259.2664,05/27.0/2026,2000,g  9.0,4.0
# From MPC194124
C/2011 K1 (Schwartz-Holvorcem),h,04/22.2920/2011,122.4826,70.8977,166.9927,1.004014,3.356153,2000,12.0,4.0
# From MPC194124
C/2011 KP36 (Spacewatch),e,18.9508,173.4248,180.9467,39.32984,0.0039960,0.87472500,14.6058,05/27.0/2026,2000,g  4.5,4.0
# From MPC194124
C/2011 L1 (McNaught),e,65.4284,252.4933,294.3565,11.02449,0.0269257,0.79703012,151.9523,05/27.0/2026,2000,g 11.0,4.0
# From MPC194124
C/2011 L2 (McNaught),e,104.1392,131.1134,256.8018,11625,0.0000008,0.99983382,0.0000,11/01.4088/2011,2000,g 12.5,4.0
# From MPC194124
C/2011 L3 (McNaught),e,86.8173,307.7158,27.6970,1296,0.0000211,0.99851353,0.0000,08/09.7383/2011,2000,g 12.5,4.0
# From MPC194124
C/2011 L4 (PANSTARRS),e,84.7911,65.2474,333.7243,3968,0.0000039,0.99992324,0.0000,03/11.7299/2013,2000,g  5.5,4.0
# From MPC194125
C/2011 L6 (Boattini),h,01/22.3601/2011,171.4496,214.5241,331.3423,1.000222,6.750807,2000,9.0,4.0
# From MPC194125
C/2011 M1 (LINEAR),h,09/09.2434/2011,70.2637,324.3697,119.6364,1.002338,0.886097,2000,12.0,4.0
# From MPC194125
P/2011 N1 (ASH),e,35.7943,77.5691,330.5874,6.229976,0.0633832,0.54513835,323.0309,05/27.0/2026,2000,g 11.5,4.0
# From MPC194125
C/2011 N2 (McNaught),e,33.5409,274.1404,356.9918,1674,0.0000144,0.99845797,0.0000,10/10.6280/2011,2000,g 11.5,4.0
# From MPC194125
C/2011 O1 (LINEAR),e,76.2744,89.7441,232.4791,827.6177,0.0000414,0.99527915,0.0000,08/13.4710/2012,2000,g  7.0,4.0
# From MPC194125
P/2011 P1 (McNaught),e,5.6500,4.1679,349.1602,7.466046,0.0483135,0.32586535,279.3167,05/27.0/2026,2000,g  9.0,4.0
# From MPC194125
C/2011 P2 (PANSTARRS),e,8.9860,203.9064,76.1873,9.764678,0.0323011,0.36523298,186.3552,05/27.0/2026,2000,g  8.5,4.0
# From MPC194125
C/2011 Q1 (PANSTARRS),e,94.8824,142.3773,136.0455,3365,0.0000050,0.99797755,0.0000,06/26.1494/2011,2000,g  9.5,4.0
# From MPC194125
C/2011 Q2 (McNaught),e,36.8927,287.0042,35.1365,1088,0.0000275,0.99873769,0.0000,01/14.7151/2012,2000,g 10.0,4.0
# From MPC194125
C/2011 Q4 (SWAN),e,147.6288,252.2015,1.8773,41.38353,0.0037022,0.97336541,0.0000,09/18.9131/2011,2000,g 12.5,4.0
# From MPC194125
C/2011 R1 (McNaught),e,116.1696,221.5956,308.7751,14098,0.0000006,0.99985399,0.0000,10/22.0212/2012,2000,g  6.5,4.0
# From MPC194125
P/2011 S1 (Gibbs),e,2.6872,218.8096,193.1603,8.603651,0.0390553,0.20006736,167.7441,05/27.0/2026,2000,g  8.0,4.0
# From MPC194126
C/2011 S2 (Kowalski),e,17.7262,288.0658,192.1310,16.32198,0.0149467,0.93255642,79.5874,05/27.0/2026,2000,g 15.5,4.0
# From MPC194126
C/2011 U3 (PANSTARRS),e,116.7774,228.6614,287.8127,2839,0.0000065,0.99962771,0.0000,06/06.8683/2012,2000,g 14.0,4.0
# From MPC194126
C/2011 UF305 (LINEAR),e,94.0460,297.1376,121.8090,2237,0.0000093,0.99904787,0.0000,07/20.9304/2012,2000,g  9.0,4.0
# From MPC194126
P/2011 V1 (Boattini),e,7.3820,46.4909,269.5849,3.858070,0.1300616,0.54836339,4.3457,05/27.0/2026,2000,g 15.5,4.0
# From MPC194126
P/2011 W1 (PANSTARRS),e,3.7164,161.7390,283.1888,4.676638,0.0974549,0.28813219,152.7422,05/27.0/2026,2000,g 11.5,4.0
# From MPC194126
C/2011 W3 (Lovejoy),e,133.1036,324.1378,51.8787,72.32698,0.0016023,0.99993634,0.0000,12/13.9996/2011,2000,g 14.5,4.0
# From MPC194126
P/2011 Y2 (Boattini),e,6.3944,309.2714,132.1525,6.223918,0.0634758,0.71109581,328.6707,05/27.0/2026,2000,g 15.0,4.0
# From MPC194126
C/2011 Y3 (Boattini),e,26.6034,84.6914,340.5666,11.72666,0.0245439,0.70343619,132.1469,05/27.0/2026,2000,g  8.0,4.0
# From MPC194126
C/2012 A1 (PANSTARRS),e,121.0178,277.8560,191.9754,11869,0.0000008,0.99935763,0.0000,11/28.6935/2013,2000,g  6.0,4.0
# From MPC194126
C/2012 A2 (LINEAR),e,125.8529,191.4332,101.8233,903.8194,0.0000363,0.99605429,0.0000,10/28.8750/2012,2000,g  8.5,4.0
# From unp
P/2012 A3 (SOHO),e,11.0134,174.5508,219.8347,2.584366,0.2372319,0.76995557,164.2628,05/27.0/2026,2000,g 17.0,4.0
# From MPC194127
P/2012 B1 (PANSTARRS),e,7.6053,36.2095,161.8409,6.545797,0.0588519,0.41067482,278.7972,05/27.0/2026,2000,g  9.0,4.0
# From MPC194127
C/2012 B3 (LaSagra),e,106.7235,252.9404,50.7251,6026,0.0000021,0.99941259,0.0000,12/01.5031/2011,2000,g 10.0,4.0
# From MPC194127
C/2012 BJ98 (Lemmon),e,2.6379,124.1081,72.9135,17.16328,0.0138613,0.87440451,69.3456,05/27.0/2026,2000,g 12.5,4.0
# From MPC194127
C/2012 C1 (McNaught),e,96.3888,300.8318,279.9530,1422,0.0000184,0.99658995,0.0000,02/02.4440/2013,2000,g  7.5,4.0
# From MPC194127
C/2012 C2 (Bruenjes),h,03/11.9886/2012,162.9472,118.5214,63.2779,1.003230,0.815254,2000,17.0,4.0
# From MPC194127
P/2012 C3 (PANSTARRS),e,9.3902,133.1214,347.6372,9.772087,0.0322644,0.62710523,172.4962,05/27.0/2026,2000,g 13.0,4.0
# From MPC194127
C/2012 CH17 (MOSS),e,27.6611,126.2560,137.8489,3758,0.0000043,0.99965096,0.0000,09/20.8302/2012,2000,g 11.0,4.0
# From MPC194127
C/2012 E1 (Hill),e,122.3990,286.3320,48.7970,1378,0.0000193,0.99456534,0.0000,07/02.8969/2011,2000,g  6.5,4.0
# From MPC194127
C/2012 E3 (PANSTARRS),e,105.6322,5.5060,103.3019,202.1314,0.0003430,0.98121356,0.0000,05/17.0625/2011,2000,g 10.0,4.0
# From MPC194127
C/2012 F1 (Gibbs),e,159.5706,130.0644,300.4255,68.97201,0.0017207,0.96310525,8.9765,05/27.0/2026,2000,g 14.0,4.0
# From MPC194127
P/2012 F2 (PANSTARRS),e,14.6905,226.8169,33.2915,6.351672,0.0615704,0.54194557,296.8742,05/27.0/2026,2000,g 12.0,4.0
# From MPC194128
C/2012 F3 (PANSTARRS),h,03/31.0337/2015,11.3459,164.6727,104.1675,1.002841,3.479726,2000,6.5,4.0
# From MPC194128
C/2012 F6 (Lemmon),e,82.4657,333.0257,305.0473,425.8257,0.0001122,0.99825561,0.0000,03/22.0690/2013,2000,g 10.0,4.0
# From MPC194128
P/2012 G1 (PANSTARRS),e,12.1687,283.2272,266.0200,4.161065,0.1161174,0.33008245,239.8450,05/27.0/2026,2000,g 15.0,4.0
# From MPC194128
C/2012 H2 (McNaught),e,92.8540,184.1246,295.8131,16.04529,0.0153350,0.89404880,78.7401,05/27.0/2026,2000,g 15.5,4.0
# From MPC194128
C/2012 J1 (Catalina),h,12/06.8833/2012,34.1224,234.8427,147.7016,1.001906,3.177446,2000,8.0,4.0
# From MPC194128
C/2012 K1 (PANSTARRS),e,142.6746,317.7935,203.2067,11406,0.0000008,0.99990644,0.0000,08/22.4286/2014,2000,g  5.6,3.2
# From MPC194128
P/2012 K3 (Gibbs),e,13.1787,125.8019,172.1014,3.634151,0.1422655,0.42181768,352.9145,05/27.0/2026,2000,g 15.0,4.0
# From MPC194128
C/2012 K5 (LINEAR),e,93.0946,278.6640,139.2235,589.1314,0.0000689,0.99805999,0.0000,11/27.3408/2012,2000,g 12.0,4.0
# From MPC194128
C/2012 K6 (McNaught),e,135.2190,207.0320,338.7642,1431,0.0000182,0.99767384,0.0000,05/21.2578/2013,2000,g  8.5,4.0
# From MPC194128
C/2012 K8 (Lemmon),h,08/20.6046/2014,105.9528,312.7244,75.8640,1.000875,6.456869,2000,6.0,4.0
# From MPC194128
C/2012 KA51 (Palomar),e,70.6651,344.7673,94.0686,533.9918,0.0000799,0.99086847,0.0000,11/04.9994/2011,2000,g  8.7,4.0
# From MPC194128
C/2012 L1 (LINEAR),e,87.3606,271.4649,140.1611,537.6236,0.0000791,0.99578972,0.0000,12/23.6732/2012,2000,g 10.5,4.0
# From MPC194129
C/2012 L2 (LINEAR),e,71.4074,270.3204,205.7341,463.8535,0.0000987,0.99675511,0.0000,05/10.4824/2013,2000,g 10.0,4.0
# From MPC194129
C/2012 L3 (LINEAR),e,134.2375,53.6949,107.0775,302.0085,0.0001878,0.98998113,0.0000,06/16.6959/2012,2000,g 13.0,4.0
# From MPC194129
C/2012 LP26 (Palomar),h,08/12.2137/2015,25.3614,154.1091,145.2695,1.001174,6.567299,2000,6.5,4.0
# From MPC194129
P/2012 NJ (LaSagra),e,84.2295,315.7333,338.3422,8.467181,0.0400033,0.84678346,204.0062,05/27.0/2026,2000,g 14.5,4.0
# From MPC194129
C/2012 OP (SidingSpring),e,114.6572,267.5508,351.4317,774.0125,0.0000458,0.99535454,0.0000,12/05.4160/2012,2000,g 13.5,2.0
# From MPC194129
P/2012 O1 (McNaught),e,7.4229,91.8925,238.3243,3.542901,0.1477970,0.59351583,30.4503,05/27.0/2026,2000,g 17.5,4.0
# From MPC194129
P/2012 O2 (McNaught),e,24.4475,120.6533,183.3941,3.630766,0.1424645,0.53130103,7.9261,05/27.0/2026,2000,g 17.0,4.0
# From MPC194129
